{"epoch":1784762836,"count":18316,"objects":[{"id":"67946","name":"STARLINK-36909","type":"PAYLOAD","l1":"1 67946U 26037Q   26202.92412072  .00008666  00000-0  32394-3 0  9999","l2":"2 67946  43.0014 152.3168 0001266 230.5239 129.5501 15.27593982 23875"},{"id":"67947","name":"STARLINK-36920","type":"PAYLOAD","l1":"1 67947U 26037R   26203.57413851  .00022792  00000-0  83444-3 0  9996","l2":"2 67947  43.0015 148.6109 0001516 273.0860  86.9819 15.27610331 23977"},{"id":"67948","name":"STARLINK-36873","type":"PAYLOAD","l1":"1 67948U 26037S   26203.57156769  .00012488  00000-0  46233-3 0  9995","l2":"2 67948  43.0040 148.5931 0001626 284.1265  75.9406 15.27597142 23976"},{"id":"67949","name":"STARLINK-36863","type":"PAYLOAD","l1":"1 67949U 26037T   26203.56897962  .00020949  00000-0  76744-3 0  9993","l2":"2 67949  43.0027 148.5630 0006285 265.3624  94.6509 15.27616815 23975"},{"id":"67950","name":"STARLINK-36887","type":"PAYLOAD","l1":"1 67950U 26037U   26203.56530246  .00022614  00000-0  82774-3 0  9995","l2":"2 67950  42.9996 149.4226 0001304 274.9888  85.0815 15.27620901 23960"},{"id":"67951","name":"STARLINK-36897","type":"PAYLOAD","l1":"1 67951U 26037V   26202.90757324  .00025020  00000-0  91486-3 0  9995","l2":"2 67951  42.9986 153.0576 0001357 211.9666 148.1104 15.27607903 23860"},{"id":"67952","name":"STARLINK-36381","type":"PAYLOAD","l1":"1 67952U 26037W   26203.55371897  .00016789  00000-0  61777-3 0  9997","l2":"2 67952  42.9990 149.3153 0002668 258.4154 101.6398 15.27603361 23963"},{"id":"67953","name":"STARLINK-36824","type":"PAYLOAD","l1":"1 67953U 26037X   26203.55758600  .00016717  00000-0  61530-3 0  9997","l2":"2 67953  42.9979 149.3607 0000858 281.0513  79.0242 15.27596888 23966"},{"id":"67954","name":"STARLINK-36869","type":"PAYLOAD","l1":"1 67954U 26037Y   26202.56265752  .00021008  00000-0  77040-3 0  9991","l2":"2 67954  42.9994 154.7924 0001011 269.8956  90.1780 15.27596056 23815"},{"id":"67955","name":"STARLINK-36872","type":"PAYLOAD","l1":"1 67955U 26037Z   26202.55494335  .00010363  00000-0  38534-3 0  9999","l2":"2 67955  42.9983 154.7120 0000650 301.4548  58.6240 15.27598539 23818"},{"id":"67956","name":"STARLINK-36918","type":"PAYLOAD","l1":"1 67956U 26037AA  26202.87801836  .00013651  00000-0  50423-3 0  9997","l2":"2 67956  42.9990 152.8400 0000885 255.0235 105.0519 15.27607295 23865"},{"id":"67957","name":"STARLINK-36829","type":"PAYLOAD","l1":"1 67957U 26037AB  26203.53960707  .00006045  00000-0  22909-3 0  9992","l2":"2 67957  42.9980 149.2154 0001370 283.1935  76.8764 15.27566714 23957"},{"id":"67958","name":"STARLINK-36799","type":"PAYLOAD","l1":"1 67958U 26037AC  26202.93954816  .00026913  00000-0  98314-3 0  9999","l2":"2 67958  43.0015 152.4324 0001529 247.3300 112.7391 15.27606583 23874"},{"id":"67959","name":"STARLINK-36834","type":"PAYLOAD","l1":"1 67959U 26037AD  26202.27541027  .00013952  00000-0  51538-3 0  9999","l2":"2 67959  43.0011 156.0626 0001574 267.7039  92.3632 15.27592870 23774"},{"id":"67960","name":"STARLINK-36841","type":"PAYLOAD","l1":"1 67960U 26037AE  26202.21387392  .00012682  00000-0  46928-3 0  9994","l2":"2 67960  43.0013 156.4585 0001393 266.6918  93.3775 15.27601618 23768"},{"id":"67961","name":"STARLINK-36912","type":"PAYLOAD","l1":"1 67961U 26038A   26203.49537253  .00026690  00000-0  82580-3 0  9998","l2":"2 67961  97.2827 212.6234 0000610  59.0997 301.0306 15.33458008 23894"},{"id":"67962","name":"STARLINK-36881","type":"PAYLOAD","l1":"1 67962U 26038B   26203.49265078  .00021427  00000-0  66403-3 0  9991","l2":"2 67962  97.2799 212.6265 0000427 105.9259 254.2031 15.33451782 23891"},{"id":"67963","name":"STARLINK-36357","type":"PAYLOAD","l1":"1 67963U 26038C   26203.48721120  .00027570  00000-0  85257-3 0  9999","l2":"2 67963  97.2829 212.6349 0000563 295.0983  65.0201 15.33468834 23898"},{"id":"67964","name":"STARLINK-36349","type":"PAYLOAD","l1":"1 67964U 26038D   26203.03314247  .00021623  00000-0  66954-3 0  9995","l2":"2 67964  97.2846 212.1805 0002866 119.8866 240.2662 15.33473280 23823"},{"id":"67965","name":"STARLINK-36806","type":"PAYLOAD","l1":"1 67965U 26038E   26203.48449002  .00030121  00000-0  93085-3 0  9991","l2":"2 67965  97.2824 212.6379 0000836 254.9828 105.1322 15.33471075 23894"},{"id":"67966","name":"STARLINK-36820","type":"PAYLOAD","l1":"1 67966U 26038F   26203.02499016  .00022553  00000-0  69815-3 0  9996","l2":"2 67966  97.2831 212.1914 0002805 124.5960 235.5548 15.33472593 23827"},{"id":"67967","name":"STARLINK-36819","type":"PAYLOAD","l1":"1 67967U 26038G   26203.02227298  .00025387  00000-0  78542-3 0  9993","l2":"2 67967  97.2855 212.1924 0003234 128.4342 231.7191 15.33466853 23823"},{"id":"67968","name":"STARLINK-36812","type":"PAYLOAD","l1":"1 67968U 26038H   26203.54160163  .00008415  00000-0  26274-3 0  9996","l2":"2 67968  97.2851 212.7147 0001840  98.2265 261.9187 15.33438540 23903"},{"id":"67969","name":"STARLINK-36709","type":"PAYLOAD","l1":"1 67969U 26038J   26203.01411823  .00029415  00000-0  90923-3 0  9996","l2":"2 67969  97.2839 212.2054 0002726 102.7120 257.4428 15.33466002 23820"},{"id":"67970","name":"STARLINK-36319","type":"PAYLOAD","l1":"1 67970U 26038K   26203.47361987  .00020534  00000-0  63630-3 0  9991","l2":"2 67970  97.2831 212.6525 0000374 173.3169 186.8079 15.33461955 23891"},{"id":"67971","name":"STARLINK-36710","type":"PAYLOAD","l1":"1 67971U 26038L   26203.46818138  .00022254  00000-0  68919-3 0  9992","l2":"2 67971  97.2821 212.6608 0000525  70.3724 289.7576 15.33465640 23894"},{"id":"67972","name":"STARLINK-36894","type":"PAYLOAD","l1":"1 67972U 26038M   26203.00868108  .00022371  00000-0  69284-3 0  9991","l2":"2 67972  97.2874 212.2180 0001482  25.3308 334.8007 15.33462055 23826"},{"id":"67973","name":"STARLINK-36900","type":"PAYLOAD","l1":"1 67973U 26038N   26203.46002712  .00016116  00000-0  50030-3 0  9992","l2":"2 67973  97.2836 212.6693 0001343  88.0673 272.0724 15.33454978 23896"},{"id":"67974","name":"STARLINK-36901","type":"PAYLOAD","l1":"1 67974U 26038P   26203.46273234  .00027216  00000-0  84101-3 0  9991","l2":"2 67974  97.2829 212.6676 0001926  89.3471 270.7992 15.33493373 23891"},{"id":"67975","name":"STARLINK-36883","type":"PAYLOAD","l1":"1 67975U 26038Q   26203.44915956  .00032827  00000-0  10138-2 0  9996","l2":"2 67975  97.2869 212.6876 0002774  93.3005 266.8556 15.33470662 23896"}]}