OBJECT_NAME,OBJECT_ID,EPOCH,MEAN_MOTION,ECCENTRICITY,INCLINATION,RA_OF_ASC_NODE,ARG_OF_PERICENTER,MEAN_ANOMALY,EPHEMERIS_TYPE,CLASSIFICATION_TYPE,NORAD_CAT_ID,ELEMENT_SET_NO,REV_AT_EPOCH,BSTAR,MEAN_MOTION_DOT,MEAN_MOTION_DDOT
STARLINK-36909,2026-037Q,2026-07-21T22:10:44.030208,15.27593982,.00012656,43.0014,152.3168,230.5239,129.5501,0,U,67946,999,2387,.32394357E-3,.8666E-4,0
STARLINK-36920,2026-037R,2026-07-22T13:46:45.567264,15.27610331,.00015164,43.0015,148.6109,273.0860,86.9819,0,U,67947,999,2397,.83443685E-3,.22792E-3,0
STARLINK-36873,2026-037S,2026-07-22T13:43:03.448416,15.27597142,.00016255,43.0040,148.5931,284.1265,75.9406,0,U,67948,999,2397,.46233099E-3,.12488E-3,0
STARLINK-36863,2026-037T,2026-07-22T13:39:19.839168,15.27616815,.00062853,43.0027,148.5630,265.3624,94.6509,0,U,67949,999,2397,.7674443E-3,.20949E-3,0
STARLINK-36887,2026-037U,2026-07-22T13:34:02.132544,15.27620901,.00013036,42.9996,149.4226,274.9888,85.0815,0,U,67950,999,2396,.827737E-3,.22614E-3,0
STARLINK-36897,2026-037V,2026-07-21T21:46:54.327936,15.27607903,.0001357,42.9986,153.0576,211.9666,148.1104,0,U,67951,999,2386,.91485538E-3,.2502E-3,0
STARLINK-36381,2026-037W,2026-07-22T13:17:21.319008,15.27603361,.00026684,42.9990,149.3153,258.4154,101.6398,0,U,67952,999,2396,.61777318E-3,.16789E-3,0
STARLINK-36824,2026-037X,2026-07-22T13:22:55.430400,15.27596888,.00008582,42.9979,149.3607,281.0513,79.0242,0,U,67953,999,2396,.61530372E-3,.16717E-3,0
STARLINK-36869,2026-037Y,2026-07-21T13:30:13.609728,15.27596056,.00010107,42.9994,154.7924,269.8956,90.1780,0,U,67954,999,2381,.77039665E-3,.21008E-3,0
STARLINK-36872,2026-037Z,2026-07-21T13:19:07.105440,15.27598539,.00006504,42.9983,154.7120,301.4548,58.6240,0,U,67955,999,2381,.38534323E-3,.10363E-3,0
STARLINK-36918,2026-037AA,2026-07-21T21:04:20.786304,15.27607295,.00008848,42.9990,152.8400,255.0235,105.0519,0,U,67956,999,2386,.50423246E-3,.13651E-3,0
STARLINK-36829,2026-037AB,2026-07-22T12:57:02.050848,15.27566714,.00013696,42.9980,149.2154,283.1935,76.8764,0,U,67957,999,2395,.22909085E-3,.6045E-4,0
STARLINK-36799,2026-037AC,2026-07-21T22:32:56.961024,15.27606583,.00015291,43.0015,152.4324,247.3300,112.7391,0,U,67958,999,2387,.98314234E-3,.26913E-3,0
STARLINK-36834,2026-037AD,2026-07-21T06:36:35.447328,15.27592870,.00015743,43.0011,156.0626,267.7039,92.3632,0,U,67959,999,2377,.51538018E-3,.13952E-3,0
STARLINK-36841,2026-037AE,2026-07-21T05:07:58.706688,15.27601618,.00013931,43.0013,156.4585,266.6918,93.3775,0,U,67960,999,2376,.46928303E-3,.12682E-3,0
STARLINK-36912,2026-038A,2026-07-22T11:53:20.186592,15.33458008,.00006103,97.2827,212.6234,59.0997,301.0306,0,U,67961,999,2389,.82580354E-3,.2669E-3,0
STARLINK-36881,2026-038B,2026-07-22T11:49:25.027392,15.33451782,.00004268,97.2799,212.6265,105.9259,254.2031,0,U,67962,999,2389,.66402623E-3,.21427E-3,0
STARLINK-36357,2026-038C,2026-07-22T11:41:35.047680,15.33468834,.00005632,97.2829,212.6349,295.0983,65.0201,0,U,67963,999,2389,.85256733E-3,.2757E-3,0
STARLINK-36349,2026-038D,2026-07-22T00:47:43.509408,15.33473280,.00028664,97.2846,212.1805,119.8866,240.2662,0,U,67964,999,2382,.66953583E-3,.21623E-3,0
STARLINK-36806,2026-038E,2026-07-22T11:37:39.937728,15.33471075,.00008356,97.2824,212.6379,254.9828,105.1322,0,U,67965,999,2389,.9308451E-3,.30121E-3,0
STARLINK-36820,2026-038F,2026-07-22T00:35:59.149824,15.33472593,.00028052,97.2831,212.1914,124.5960,235.5548,0,U,67966,999,2382,.69814514E-3,.22553E-3,0
STARLINK-36819,2026-038G,2026-07-22T00:32:04.385472,15.33466853,.00032343,97.2855,212.1924,128.4342,231.7191,0,U,67967,999,2382,.78542084E-3,.25387E-3,0
STARLINK-36812,2026-038H,2026-07-22T12:59:54.380832,15.33438540,.000184,97.2851,212.7147,98.2265,261.9187,0,U,67968,999,2390,.26273938E-3,.8415E-4,0
STARLINK-36709,2026-038J,2026-07-22T00:20:19.815072,15.33466002,.00027255,97.2839,212.2054,102.7120,257.4428,0,U,67969,999,2382,.90922939E-3,.29415E-3,0
STARLINK-36319,2026-038K,2026-07-22T11:22:00.756768,15.33461955,.00003735,97.2831,212.6525,173.3169,186.8079,0,U,67970,999,2389,.63630156E-3,.20534E-3,0
STARLINK-36710,2026-038L,2026-07-22T11:14:10.871232,15.33465640,.00005248,97.2821,212.6608,70.3724,289.7576,0,U,67971,999,2389,.6891906E-3,.22254E-3,0
STARLINK-36894,2026-038M,2026-07-22T00:12:30.045312,15.33462055,.00014821,97.2874,212.2180,25.3308,334.8007,0,U,67972,999,2382,.69283981E-3,.22371E-3,0
STARLINK-36900,2026-038N,2026-07-22T11:02:26.343168,15.33454978,.00013429,97.2836,212.6693,88.0673,272.0724,0,U,67973,999,2389,.50029617E-3,.16116E-3,0
STARLINK-36901,2026-038P,2026-07-22T11:06:20.074176,15.33493373,.00019264,97.2829,212.6676,89.3471,270.7992,0,U,67974,999,2389,.8410136E-3,.27216E-3,0
STARLINK-36883,2026-038Q,2026-07-22T10:46:47.385984,15.33470662,.00027741,97.2869,212.6876,93.3005,266.8556,0,U,67975,999,2389,.10138209E-2,.32827E-3,0
